{
"type": "FeatureCollection",
"name": "postOffice",
"crs": { "type": "name", "properties": { "name": "urn:ogc:def:crs:OGC:1.3:CRS84" } },
"features": [
{ "type": "Feature", "properties": { "element": "node", "id": 262644543, "addr:city": "York", "addr:country": "GB", "addr:housenumber": "20", "addr:postcode": "YO30 5SW", "addr:street": "Eastholme Drive", "addr:suburb": "Rawcliffe", "amenity": "post_office", "name": "Eastholme Drive Post Office", "opening_hours": "Mo-Sa 07:00-21:00; Su 08:00-21:00", "ref:pol_id": "5217", "brand": null, "brand:wikidata": null, "check_date:opening_hours": null, "fhrs:id": null, "source:addr": null, "website": null, "brand:wikipedia": null, "contact:website": null, "wheelchair": null, "addr:housename": null, "addr:unit": null, "indoor": null, "old_addr:postcode": null, "old_name": null, "operator": null, "ele": null, "branch": null, "check_date": null, "wikidata": null, "operator:wikidata": null, "addr:village": null, "opening_hours:post_office": null, "building": null, "internet_access": null, "former_name": null, "shop": null, "source:ref:pol_id": null }, "geometry": { "type": "Point", "coordinates": [ -1.1070067, 53.9795219 ] } },
{ "type": "Feature", "properties": { "element": "node", "id": 262974345, "addr:city": "York", "addr:country": "GB", "addr:housenumber": "13", "addr:postcode": "YO10 5EA", "addr:street": "Main Street", "addr:suburb": "Heslington", "amenity": "post_office", "name": "Heslington Post Office", "opening_hours": "Mo-Fr 08:45-17:30; Sa 08:45-13:00", "ref:pol_id": "6938", "brand": "Post Office", "brand:wikidata": "Q1783168", "check_date:opening_hours": "2022-06-02", "fhrs:id": "244982", "source:addr": "FHRS Open Data", "website": "https://www.postoffice.co.uk/branch-finder/2013495/heslington", "brand:wikipedia": null, "contact:website": null, "wheelchair": null, "addr:housename": null, "addr:unit": null, "indoor": null, "old_addr:postcode": null, "old_name": null, "operator": null, "ele": null, "branch": null, "check_date": null, "wikidata": null, "operator:wikidata": null, "addr:village": null, "opening_hours:post_office": null, "building": null, "internet_access": null, "former_name": null, "shop": null, "source:ref:pol_id": null }, "geometry": { "type": "Point", "coordinates": [ -1.0447858, 53.9448626 ] } },
{ "type": "Feature", "properties": { "element": "node", "id": 434943195, "addr:city": "York", "addr:country": "GB", "addr:housenumber": "4", "addr:postcode": "YO1 8BP", "addr:street": "Colliergate", "addr:suburb": null, "amenity": "post_office", "name": "Market Place Post Office", "opening_hours": "Mo-Fr 09:00-17:30; Sa 09:00-14:30", "ref:pol_id": "8338", "brand": "Post Office", "brand:wikidata": "Q1783168", "check_date:opening_hours": null, "fhrs:id": null, "source:addr": null, "website": null, "brand:wikipedia": "en:Post Office Ltd", "contact:website": "https://www.postoffice.co.uk/branch-finder/222349x/market-place", "wheelchair": null, "addr:housename": null, "addr:unit": null, "indoor": null, "old_addr:postcode": null, "old_name": null, "operator": null, "ele": null, "branch": null, "check_date": null, "wikidata": null, "operator:wikidata": null, "addr:village": null, "opening_hours:post_office": null, "building": null, "internet_access": null, "former_name": null, "shop": null, "source:ref:pol_id": null }, "geometry": { "type": "Point", "coordinates": [ -1.0797855, 53.9597429 ] } },
{ "type": "Feature", "properties": { "element": "node", "id": 643441923, "addr:city": "York", "addr:country": null, "addr:housenumber": "26", "addr:postcode": "YO23 2QQ", "addr:street": "Sim Balk Lane", "addr:suburb": "Bishopthorpe", "amenity": "post_office", "name": "Bishopthorpe Post Office", "opening_hours": "Mo-Sa 06:00-18:00; Su 06:00-12:00", "ref:pol_id": "129803", "brand": "Post Office", "brand:wikidata": "Q1783168", "check_date:opening_hours": null, "fhrs:id": null, "source:addr": null, "website": "https://www.postoffice.co.uk/branch-finder/3763498/bishopthorpe", "brand:wikipedia": null, "contact:website": null, "wheelchair": "yes", "addr:housename": null, "addr:unit": null, "indoor": null, "old_addr:postcode": null, "old_name": null, "operator": null, "ele": null, "branch": null, "check_date": null, "wikidata": null, "operator:wikidata": null, "addr:village": null, "opening_hours:post_office": null, "building": null, "internet_access": null, "former_name": null, "shop": null, "source:ref:pol_id": null }, "geometry": { "type": "Point", "coordinates": [ -1.1001778, 53.9217702 ] } },
{ "type": "Feature", "properties": { "element": "node", "id": 656845323, "addr:city": "York", "addr:country": null, "addr:housenumber": null, "addr:postcode": "YO23 3GG", "addr:street": "Main Street", "addr:suburb": "Copmanthorpe", "amenity": "post_office", "name": "Post Office & Store", "opening_hours": "Mo-Fr 08:45-17:30; Sa 08:45-13:00", "ref:pol_id": "4825", "brand": "Post Office", "brand:wikidata": "Q1783168", "check_date:opening_hours": null, "fhrs:id": null, "source:addr": null, "website": "https://www.postoffice.co.uk/branch-finder/174349x/copmanthorpe", "brand:wikipedia": null, "contact:website": null, "wheelchair": null, "addr:housename": "The Shopping Precinct", "addr:unit": "9", "indoor": null, "old_addr:postcode": null, "old_name": null, "operator": null, "ele": null, "branch": null, "check_date": null, "wikidata": null, "operator:wikidata": null, "addr:village": null, "opening_hours:post_office": null, "building": null, "internet_access": null, "former_name": null, "shop": null, "source:ref:pol_id": null }, "geometry": { "type": "Point", "coordinates": [ -1.1415765, 53.915505 ] } },
{ "type": "Feature", "properties": { "element": "node", "id": 732735202, "addr:city": "York", "addr:country": "GB", "addr:housenumber": "39-41", "addr:postcode": "YO1 9QL", "addr:street": "Coney Street", "addr:suburb": null, "amenity": "post_office", "name": "York Post Office", "opening_hours": "Mo-Sa 09:00-17:30; Su 11:00-15:00", "ref:pol_id": "149160", "brand": "Post Office", "brand:wikidata": "Q1783168", "check_date:opening_hours": null, "fhrs:id": null, "source:addr": null, "website": null, "brand:wikipedia": "en:Post Office Ltd", "contact:website": "https://www.postoffice.co.uk/branch-finder/391349x/york", "wheelchair": "yes", "addr:housename": null, "addr:unit": null, "indoor": "yes", "old_addr:postcode": "YO1 8DA;YO1 8AA", "old_name": "Lendal", "operator": "WHSmith", "ele": null, "branch": null, "check_date": null, "wikidata": null, "operator:wikidata": null, "addr:village": null, "opening_hours:post_office": null, "building": null, "internet_access": null, "former_name": null, "shop": null, "source:ref:pol_id": null }, "geometry": { "type": "Point", "coordinates": [ -1.0838211, 53.9582941 ] } },
{ "type": "Feature", "properties": { "element": "node", "id": 848397489, "addr:city": "York", "addr:country": "GB", "addr:housenumber": "43A", "addr:postcode": "YO32 9QN", "addr:street": "North Moor Road", "addr:suburb": "Huntington", "amenity": "post_office", "name": "Huntington Post Office", "opening_hours": "Mo-Fr 06:00-17:30; Sa 06:00-17:00; Su 07:00-11:30", "ref:pol_id": "7557", "brand": "Post Office", "brand:wikidata": "Q1783168", "check_date:opening_hours": null, "fhrs:id": null, "source:addr": null, "website": "https://www.postoffice.co.uk/branch-finder/2103494/huntington", "brand:wikipedia": null, "contact:website": null, "wheelchair": null, "addr:housename": null, "addr:unit": null, "indoor": null, "old_addr:postcode": null, "old_name": null, "operator": null, "ele": "9", "branch": null, "check_date": null, "wikidata": null, "operator:wikidata": null, "addr:village": null, "opening_hours:post_office": null, "building": null, "internet_access": null, "former_name": null, "shop": null, "source:ref:pol_id": null }, "geometry": { "type": "Point", "coordinates": [ -1.0576015, 53.9970322 ] } },
{ "type": "Feature", "properties": { "element": "node", "id": 1143098138, "addr:city": "York", "addr:country": null, "addr:housenumber": "58", "addr:postcode": "YO19 6AB", "addr:street": "Main Street", "addr:suburb": "Wheldrake", "amenity": "post_office", "name": "Wheldrake Post Office", "opening_hours": "Mo-Sa 07:00-21:00; Su 08:00-21:00", "ref:pol_id": "10909", "brand": "Post Office", "brand:wikidata": "Q1783168", "check_date:opening_hours": null, "fhrs:id": null, "source:addr": null, "website": "https://www.postoffice.co.uk/branch-finder/2733498/wheldrake", "brand:wikipedia": null, "contact:website": null, "wheelchair": null, "addr:housename": null, "addr:unit": null, "indoor": "yes", "old_addr:postcode": null, "old_name": null, "operator": "Costcutter", "ele": null, "branch": null, "check_date": null, "wikidata": null, "operator:wikidata": null, "addr:village": null, "opening_hours:post_office": null, "building": null, "internet_access": null, "former_name": null, "shop": null, "source:ref:pol_id": null }, "geometry": { "type": "Point", "coordinates": [ -0.9649938, 53.8960741 ] } },
{ "type": "Feature", "properties": { "element": "node", "id": 1253118889, "addr:city": "York", "addr:country": null, "addr:housenumber": "52", "addr:postcode": "YO30 1YP", "addr:street": "Fairfields Drive", "addr:suburb": null, "amenity": "post_office", "name": "Skelton Post Office", "opening_hours": "Mo-Fr 09:00-17:30; Sa 09:00-12:30", "ref:pol_id": "9851", "brand": "Post Office", "brand:wikidata": "Q1783168", "check_date:opening_hours": null, "fhrs:id": null, "source:addr": null, "website": null, "brand:wikipedia": null, "contact:website": "https://www.postoffice.co.uk/branch-finder/2503492/skelton", "wheelchair": null, "addr:housename": null, "addr:unit": null, "indoor": null, "old_addr:postcode": null, "old_name": null, "operator": "Premier", "ele": null, "branch": "Skelton", "check_date": "2020-02-20", "wikidata": null, "operator:wikidata": null, "addr:village": null, "opening_hours:post_office": null, "building": null, "internet_access": null, "former_name": null, "shop": null, "source:ref:pol_id": null }, "geometry": { "type": "Point", "coordinates": [ -1.1306494, 53.9988104 ] } },
{ "type": "Feature", "properties": { "element": "node", "id": 1450272036, "addr:city": "York", "addr:country": "GB", "addr:housenumber": "137", "addr:postcode": "YO26 5PW", "addr:street": "Beckfield Lane", "addr:suburb": "Acomb", "amenity": "post_office", "name": "Beckfield Lane Post Office", "opening_hours": "Mo-Su 08:00-21:00", "ref:pol_id": "127377", "brand": null, "brand:wikidata": null, "check_date:opening_hours": null, "fhrs:id": null, "source:addr": null, "website": "https://www.postoffice.co.uk/branch-finder/6634583/beckfield-lane", "brand:wikipedia": null, "contact:website": null, "wheelchair": null, "addr:housename": null, "addr:unit": null, "indoor": "yes", "old_addr:postcode": null, "old_name": null, "operator": "Costcutters", "ele": null, "branch": null, "check_date": null, "wikidata": null, "operator:wikidata": null, "addr:village": null, "opening_hours:post_office": null, "building": null, "internet_access": null, "former_name": null, "shop": null, "source:ref:pol_id": null }, "geometry": { "type": "Point", "coordinates": [ -1.1343491, 53.9628966 ] } },
{ "type": "Feature", "properties": { "element": "node", "id": 1880001723, "addr:city": "York", "addr:country": "GB", "addr:housenumber": "51", "addr:postcode": "YO24 2RQ", "addr:street": "Moorcroft Road", "addr:suburb": "Woodthorpe", "amenity": "post_office", "name": "Woodthorpe Post Office", "opening_hours": "Mo-Su 07:00-22:00", "ref:pol_id": "151076", "brand": null, "brand:wikidata": null, "check_date:opening_hours": null, "fhrs:id": null, "source:addr": null, "website": null, "brand:wikipedia": null, "contact:website": null, "wheelchair": null, "addr:housename": null, "addr:unit": null, "indoor": null, "old_addr:postcode": null, "old_name": null, "operator": null, "ele": null, "branch": null, "check_date": null, "wikidata": null, "operator:wikidata": null, "addr:village": null, "opening_hours:post_office": null, "building": null, "internet_access": null, "former_name": null, "shop": null, "source:ref:pol_id": null }, "geometry": { "type": "Point", "coordinates": [ -1.1233154, 53.9364058 ] } },
{ "type": "Feature", "properties": { "element": "node", "id": 1933047389, "addr:city": "York", "addr:country": "GB", "addr:housenumber": "29", "addr:postcode": "YO19 5QT", "addr:street": "York Street", "addr:suburb": "Dunnington", "amenity": "post_office", "name": "Dunnington Post Office", "opening_hours": "Mo-Sa 07:30-21:00; Su 08:00-20:00", "ref:pol_id": "5141", "brand": null, "brand:wikidata": null, "check_date:opening_hours": null, "fhrs:id": null, "source:addr": null, "website": null, "brand:wikipedia": null, "contact:website": null, "wheelchair": null, "addr:housename": null, "addr:unit": null, "indoor": "yes", "old_addr:postcode": null, "old_name": null, "operator": "Costcutter", "ele": null, "branch": null, "check_date": null, "wikidata": null, "operator:wikidata": null, "addr:village": null, "opening_hours:post_office": null, "building": null, "internet_access": null, "former_name": null, "shop": null, "source:ref:pol_id": null }, "geometry": { "type": "Point", "coordinates": [ -0.9818213, 53.963923 ] } },
{ "type": "Feature", "properties": { "element": "node", "id": 2570203708, "addr:city": "York", "addr:country": "GB", "addr:housenumber": "95", "addr:postcode": "YO1 6LE", "addr:street": "Micklegate", "addr:suburb": null, "amenity": "post_office", "name": "Micklegate Post Office", "opening_hours": "Mo-Fr 09:00-17:30; Sa 09:00-14:30", "ref:pol_id": "8595brand=Post Office", "brand": "Post Office", "brand:wikidata": "Q1783168", "check_date:opening_hours": null, "fhrs:id": null, "source:addr": null, "website": null, "brand:wikipedia": "en:Post Office Ltd", "contact:website": "https://www.postoffice.co.uk/branch-finder/2263491/micklegate", "wheelchair": null, "addr:housename": null, "addr:unit": null, "indoor": null, "old_addr:postcode": null, "old_name": null, "operator": null, "ele": null, "branch": null, "check_date": null, "wikidata": "Q26548665", "operator:wikidata": null, "addr:village": null, "opening_hours:post_office": null, "building": null, "internet_access": null, "former_name": null, "shop": null, "source:ref:pol_id": null }, "geometry": { "type": "Point", "coordinates": [ -1.089761, 53.9565563 ] } },
{ "type": "Feature", "properties": { "element": "node", "id": 3256863489, "addr:city": "York", "addr:country": null, "addr:housenumber": "143-145", "addr:postcode": "YO10 3SD", "addr:street": "Tang Hall Lane", "addr:suburb": null, "amenity": "post_office", "name": "Tang Hall Lane Post Office", "opening_hours": "Mo-Su 07:00-23:00", "ref:pol_id": "144322", "brand": null, "brand:wikidata": null, "check_date:opening_hours": "2021-08-29", "fhrs:id": null, "source:addr": null, "website": null, "brand:wikipedia": null, "contact:website": null, "wheelchair": null, "addr:housename": null, "addr:unit": null, "indoor": "yes", "old_addr:postcode": null, "old_name": null, "operator": "Co-op", "ele": null, "branch": null, "check_date": null, "wikidata": null, "operator:wikidata": null, "addr:village": null, "opening_hours:post_office": null, "building": null, "internet_access": null, "former_name": null, "shop": null, "source:ref:pol_id": null }, "geometry": { "type": "Point", "coordinates": [ -1.049664, 53.958979 ] } },
{ "type": "Feature", "properties": { "element": "node", "id": 3506108617, "addr:city": "York", "addr:country": "GB", "addr:housenumber": null, "addr:postcode": "YO23 3QF", "addr:street": "Wetherby Road", "addr:suburb": "Rufforth", "amenity": "post_office", "name": "Rufforth Post Office", "opening_hours": "Mo,Th 09:30-12:30", "ref:pol_id": "93529", "brand": null, "brand:wikidata": null, "check_date:opening_hours": null, "fhrs:id": null, "source:addr": null, "website": null, "brand:wikipedia": null, "contact:website": null, "wheelchair": null, "addr:housename": "Methodist Hall", "addr:unit": null, "indoor": "yes", "old_addr:postcode": null, "old_name": null, "operator": "Methodist Hall", "ele": null, "branch": null, "check_date": null, "wikidata": null, "operator:wikidata": null, "addr:village": null, "opening_hours:post_office": null, "building": null, "internet_access": null, "former_name": null, "shop": null, "source:ref:pol_id": null }, "geometry": { "type": "Point", "coordinates": [ -1.195462, 53.955712 ] } },
{ "type": "Feature", "properties": { "element": "node", "id": 3508095489, "addr:city": "York", "addr:country": null, "addr:housenumber": null, "addr:postcode": "YO31 9FD", "addr:street": "Turner Close", "addr:suburb": null, "amenity": "post_office", "name": "Huntington Road Post Office", "opening_hours": "Mo-Su 08:00-21:00", "ref:pol_id": "127938", "brand": "Post Office", "brand:wikidata": "Q1783168", "check_date:opening_hours": null, "fhrs:id": null, "source:addr": null, "website": "https://www.postoffice.co.uk/branch-finder/3773493/huntington-road", "brand:wikipedia": null, "contact:website": null, "wheelchair": null, "addr:housename": null, "addr:unit": null, "indoor": "yes", "old_addr:postcode": null, "old_name": null, "operator": "Spar", "ele": null, "branch": null, "check_date": null, "wikidata": null, "operator:wikidata": null, "addr:village": null, "opening_hours:post_office": null, "building": null, "internet_access": null, "former_name": null, "shop": null, "source:ref:pol_id": null }, "geometry": { "type": "Point", "coordinates": [ -1.0723674, 53.9762226 ] } },
{ "type": "Feature", "properties": { "element": "node", "id": 3508097398, "addr:city": "York", "addr:country": "GB", "addr:housenumber": "52-54", "addr:postcode": "YO31 9ER", "addr:street": "Brockfield Park Drive", "addr:suburb": null, "amenity": "post_office", "name": "Brockfield Post Office", "opening_hours": "Mo-Su 07:30-21:00", "ref:pol_id": "9150", "brand": null, "brand:wikidata": null, "check_date:opening_hours": null, "fhrs:id": null, "source:addr": null, "website": null, "brand:wikipedia": null, "contact:website": null, "wheelchair": null, "addr:housename": null, "addr:unit": null, "indoor": "yes", "old_addr:postcode": null, "old_name": null, "operator": "Spar", "ele": null, "branch": null, "check_date": null, "wikidata": null, "operator:wikidata": null, "addr:village": null, "opening_hours:post_office": null, "building": null, "internet_access": null, "former_name": null, "shop": null, "source:ref:pol_id": null }, "geometry": { "type": "Point", "coordinates": [ -1.0633834, 53.9848417 ] } },
{ "type": "Feature", "properties": { "element": "node", "id": 4646287736, "addr:city": "York", "addr:country": null, "addr:housenumber": null, "addr:postcode": "YO32 4AQ", "addr:street": "Hawthorne Terrace", "addr:suburb": "New Earswick", "amenity": "post_office", "name": "New Earswick Post Office", "opening_hours": "Mo-Fr 09:00-18:00; Sa 09:00-13:30", "ref:pol_id": "126407", "brand": null, "brand:wikidata": null, "check_date:opening_hours": null, "fhrs:id": null, "source:addr": null, "website": null, "brand:wikipedia": null, "contact:website": null, "wheelchair": null, "addr:housename": "New Earswick Folk Hall", "addr:unit": null, "indoor": null, "old_addr:postcode": null, "old_name": null, "operator": null, "ele": null, "branch": null, "check_date": null, "wikidata": null, "operator:wikidata": null, "addr:village": null, "opening_hours:post_office": null, "building": null, "internet_access": null, "former_name": null, "shop": null, "source:ref:pol_id": null }, "geometry": { "type": "Point", "coordinates": [ -1.0733734, 53.9891932 ] } },
{ "type": "Feature", "properties": { "element": "node", "id": 9878813589, "addr:city": "York", "addr:country": "GB", "addr:housenumber": "125", "addr:postcode": "YO31 0PF", "addr:street": "Bad Bargain Lane", "addr:suburb": "Heworth", "amenity": "post_office", "name": "Bad Bargain Lane Post Office", "opening_hours": null, "ref:pol_id": "145870", "brand": "Post Office", "brand:wikidata": "Q1783168", "check_date:opening_hours": null, "fhrs:id": null, "source:addr": null, "website": null, "brand:wikipedia": null, "contact:website": "https://www.postoffice.co.uk/branch-finder/3873498/bad-bargain-lane", "wheelchair": null, "addr:housename": null, "addr:unit": null, "indoor": null, "old_addr:postcode": null, "old_name": null, "operator": "Post Office", "ele": null, "branch": null, "check_date": "2022-05-27", "wikidata": null, "operator:wikidata": "Q1783168", "addr:village": null, "opening_hours:post_office": null, "building": null, "internet_access": null, "former_name": null, "shop": null, "source:ref:pol_id": null }, "geometry": { "type": "Point", "coordinates": [ -1.0457271, 53.9657878 ] } },
{ "type": "Feature", "properties": { "element": "node", "id": 9881914107, "addr:city": "York", "addr:country": "GB", "addr:housenumber": "605", "addr:postcode": "YO32 5TB", "addr:street": "Strensall Road", "addr:suburb": null, "amenity": "post_office", "name": "Strensall Post Office", "opening_hours": "Mo-Su 07:00-21:00", "ref:pol_id": "134088", "brand": "Post Office", "brand:wikidata": "Q1783168", "check_date:opening_hours": null, "fhrs:id": null, "source:addr": null, "website": null, "brand:wikipedia": null, "contact:website": "https://www.postoffice.co.uk/branch-finder/3823490/strensall", "wheelchair": "yes", "addr:housename": null, "addr:unit": null, "indoor": null, "old_addr:postcode": null, "old_name": null, "operator": null, "ele": null, "branch": null, "check_date": null, "wikidata": null, "operator:wikidata": null, "addr:village": "Strensall", "opening_hours:post_office": null, "building": null, "internet_access": null, "former_name": null, "shop": null, "source:ref:pol_id": null }, "geometry": { "type": "Point", "coordinates": [ -1.0408239, 54.027595 ] } },
{ "type": "Feature", "properties": { "element": "node", "id": 10657718512, "addr:city": "York", "addr:country": null, "addr:housenumber": "19", "addr:postcode": "YO32 3HS", "addr:street": "The Village", "addr:suburb": "Haxby", "amenity": "post_office", "name": "Haxby Post Office", "opening_hours": null, "ref:pol_id": "131479", "brand": "Post Office", "brand:wikidata": "Q1783168", "check_date:opening_hours": null, "fhrs:id": null, "source:addr": null, "website": "https://www.postoffice.co.uk/branch-finder/380349x/haxby", "brand:wikipedia": null, "contact:website": null, "wheelchair": null, "addr:housename": null, "addr:unit": null, "indoor": null, "old_addr:postcode": null, "old_name": null, "operator": null, "ele": null, "branch": null, "check_date": null, "wikidata": null, "operator:wikidata": null, "addr:village": null, "opening_hours:post_office": "Mo,Th 06:00-18:00; Tu,We,Fr 06:00-18:30; Sa 07:00-18:30; Su 07:00-14:00", "building": null, "internet_access": null, "former_name": null, "shop": null, "source:ref:pol_id": null }, "geometry": { "type": "Point", "coordinates": [ -1.0741696, 54.0163533 ] } },
{ "type": "Feature", "properties": { "element": "node", "id": 11277758810, "addr:city": null, "addr:country": null, "addr:housenumber": null, "addr:postcode": null, "addr:street": null, "addr:suburb": null, "amenity": "post_office", "name": "Dringhouses Post Office", "opening_hours": "Mo-Sa 06:00-20:00; Su 06:00-12:30", "ref:pol_id": "5063", "brand": "Post Office", "brand:wikidata": "Q1783168", "check_date:opening_hours": null, "fhrs:id": null, "source:addr": null, "website": "https://www.postoffice.co.uk/branch-finder/1773496/dringhouses", "brand:wikipedia": null, "contact:website": null, "wheelchair": "yes", "addr:housename": null, "addr:unit": null, "indoor": null, "old_addr:postcode": null, "old_name": null, "operator": "Mace", "ele": null, "branch": null, "check_date": null, "wikidata": null, "operator:wikidata": "Q75240338", "addr:village": null, "opening_hours:post_office": null, "building": null, "internet_access": null, "former_name": null, "shop": null, "source:ref:pol_id": null }, "geometry": { "type": "Point", "coordinates": [ -1.1058864, 53.9414304 ] } },
{ "type": "Feature", "properties": { "element": "node", "id": 11277821513, "addr:city": "York", "addr:country": "GB", "addr:housenumber": "10-12", "addr:postcode": "YO26 6HN", "addr:street": "Allerton Drive", "addr:suburb": null, "amenity": "post_office", "name": null, "opening_hours": null, "ref:pol_id": "131771", "brand": "Post Office", "brand:wikidata": "Q1783168", "check_date:opening_hours": null, "fhrs:id": null, "source:addr": null, "website": "https://www.postoffice.co.uk/branch-finder/3813495/nether-poppleton", "brand:wikipedia": null, "contact:website": null, "wheelchair": null, "addr:housename": null, "addr:unit": null, "indoor": null, "old_addr:postcode": null, "old_name": null, "operator": "Premier", "ele": null, "branch": null, "check_date": null, "wikidata": null, "operator:wikidata": "Q7240340", "addr:village": "Nether Poppleton", "opening_hours:post_office": null, "building": null, "internet_access": null, "former_name": null, "shop": null, "source:ref:pol_id": null }, "geometry": { "type": "Point", "coordinates": [ -1.1489081, 53.985047 ] } },
{ "type": "Feature", "properties": { "element": "node", "id": 11277836848, "addr:city": null, "addr:country": null, "addr:housenumber": null, "addr:postcode": null, "addr:street": null, "addr:suburb": null, "amenity": "post_office", "name": null, "opening_hours": null, "ref:pol_id": "115792", "brand": "Post Office", "brand:wikidata": "Q1783168", "check_date:opening_hours": null, "fhrs:id": null, "source:addr": null, "website": "https://www.postoffice.co.uk/branch-finder/1454587/walmgate-bar", "brand:wikipedia": null, "contact:website": null, "wheelchair": null, "addr:housename": null, "addr:unit": null, "indoor": null, "old_addr:postcode": null, "old_name": null, "operator": "One Stop", "ele": null, "branch": null, "check_date": null, "wikidata": null, "operator:wikidata": "Q65954217", "addr:village": null, "opening_hours:post_office": null, "building": null, "internet_access": null, "former_name": null, "shop": null, "source:ref:pol_id": null }, "geometry": { "type": "Point", "coordinates": [ -1.0736336, 53.9559862 ] } },
{ "type": "Feature", "properties": { "element": "way", "id": 193676984, "addr:city": "York", "addr:country": "GB", "addr:housenumber": "44", "addr:postcode": "YO10 4JX", "addr:street": "Broadway", "addr:suburb": null, "amenity": "post_office", "name": "Broadway Post Office", "opening_hours": "Mo-Sa 06:00-19:00; Su 06:00-13:00", "ref:pol_id": "4575", "brand": "Post Office", "brand:wikidata": "Q1783168", "check_date:opening_hours": null, "fhrs:id": null, "source:addr": null, "website": "https://www.postoffice.co.uk/branch-finder/1713493/broadway", "brand:wikipedia": null, "contact:website": null, "wheelchair": "yes", "addr:housename": null, "addr:unit": null, "indoor": null, "old_addr:postcode": null, "old_name": null, "operator": null, "ele": null, "branch": null, "check_date": "2023-02-13", "wikidata": null, "operator:wikidata": null, "addr:village": null, "opening_hours:post_office": null, "building": "yes", "internet_access": "no", "former_name": null, "shop": null, "source:ref:pol_id": null }, "geometry": { "type": "Polygon", "coordinates": [ [ [ -1.0702189, 53.941018 ], [ -1.0701211, 53.94102 ], [ -1.070116, 53.9409348 ], [ -1.0700706, 53.9409357 ], [ -1.0700661, 53.9408602 ], [ -1.0702095, 53.9408573 ], [ -1.0702189, 53.941018 ] ] ] } },
{ "type": "Feature", "properties": { "element": "way", "id": 251543050, "addr:city": "York", "addr:country": "GB", "addr:housenumber": "39A", "addr:postcode": "YO24 4LW", "addr:street": "York Road", "addr:suburb": "Acomb", "amenity": "post_office", "name": "Taylor's of Acomb", "opening_hours": null, "ref:pol_id": "127934", "brand": null, "brand:wikidata": null, "check_date:opening_hours": null, "fhrs:id": null, "source:addr": null, "website": null, "brand:wikipedia": null, "contact:website": null, "wheelchair": null, "addr:housename": null, "addr:unit": null, "indoor": null, "old_addr:postcode": null, "old_name": "Select Convenience", "operator": null, "ele": null, "branch": null, "check_date": null, "wikidata": null, "operator:wikidata": null, "addr:village": null, "opening_hours:post_office": "Mo-Sa 06:00-20:00; Su 07:00-17:00", "building": "retail", "internet_access": null, "former_name": "Blockbuster", "shop": "convenience", "source:ref:pol_id": null }, "geometry": { "type": "Polygon", "coordinates": [ [ [ -1.1223432, 53.9559587 ], [ -1.1223175, 53.9558136 ], [ -1.1222827, 53.9558154 ], [ -1.1221428, 53.9558228 ], [ -1.1221583, 53.955875 ], [ -1.1221818, 53.955968 ], [ -1.1221996, 53.955967 ], [ -1.1223432, 53.9559587 ] ] ] } },
{ "type": "Feature", "properties": { "element": "way", "id": 299944491, "addr:city": "York", "addr:country": null, "addr:housenumber": "73", "addr:postcode": "YO31 7YB", "addr:street": "East Parade", "addr:suburb": "Heworth", "amenity": "post_office", "name": "Heworth Post Office", "opening_hours": "Mo-Fr 08:30-17:30; Sa 08:30-13:30", "ref:pol_id": "7084", "brand": "Post Office", "brand:wikidata": "Q1783168", "check_date:opening_hours": null, "fhrs:id": null, "source:addr": null, "website": "https://www.postoffice.co.uk/branch-finder/2033496/heworth", "brand:wikipedia": null, "contact:website": null, "wheelchair": null, "addr:housename": null, "addr:unit": null, "indoor": null, "old_addr:postcode": null, "old_name": null, "operator": "Post Office Ltd", "ele": null, "branch": null, "check_date": null, "wikidata": null, "operator:wikidata": null, "addr:village": null, "opening_hours:post_office": null, "building": "yes", "internet_access": null, "former_name": null, "shop": null, "source:ref:pol_id": "pol_branch_list_2019-03" }, "geometry": { "type": "Polygon", "coordinates": [ [ [ -1.0641083, 53.9655714 ], [ -1.0640319, 53.9655862 ], [ -1.064095, 53.9656962 ], [ -1.064172, 53.9656807 ], [ -1.0641083, 53.9655714 ] ] ] } },
{ "type": "Feature", "properties": { "element": "way", "id": 827051294, "addr:city": "York", "addr:country": null, "addr:housenumber": null, "addr:postcode": "YO19 4RR", "addr:street": "Front Street", "addr:suburb": "Naburn", "amenity": "post_office", "name": "Naburn Post Office", "opening_hours": null, "ref:pol_id": "16028", "brand": "Post Office", "brand:wikidata": "Q1783168", "check_date:opening_hours": null, "fhrs:id": null, "source:addr": null, "website": null, "brand:wikipedia": null, "contact:website": null, "wheelchair": null, "addr:housename": "The Reading Rooms", "addr:unit": null, "indoor": null, "old_addr:postcode": null, "old_name": null, "operator": null, "ele": null, "branch": "Naburn", "check_date": "2020-02-20", "wikidata": null, "operator:wikidata": null, "addr:village": null, "opening_hours:post_office": null, "building": "yes", "internet_access": null, "former_name": null, "shop": null, "source:ref:pol_id": null }, "geometry": { "type": "Polygon", "coordinates": [ [ [ -1.0900516, 53.9031831 ], [ -1.0900938, 53.9031511 ], [ -1.0900281, 53.903121 ], [ -1.0899859, 53.9031531 ], [ -1.0900516, 53.9031831 ] ] ] } }
]
}
